ONEWEB-0446             
1 51640U 22012U   24121.62229833 -.00000067  00000+0 -22712-3 0  9999
2 51640  87.8991 190.8204 0002369  96.4758 263.6639 13.10377880107497
ONEWEB-0448             
1 51641U 22012V   24121.55091248 -.00000702  00000+0 -20465-2 0  9997
2 51641  87.8990 190.8355 0001969 103.9967 256.1379 13.10367270107451
ONEWEB-0449             
1 51642U 22012W   24121.47953242  .00000474  00000+0  13210-2 0  9994
2 51642  87.8984 190.8473 0001908  92.3757 267.7589 13.10376212107454
ONEWEB-0451             
1 51643U 22012X   24121.62194293 -.00000023  00000+0 -91529-4 0  9998
2 51643  87.9187 160.6015 0001879  96.4935 263.6410 13.17649874111264
ONEWEB-0452             
1 51644U 22012Y   24121.62034928 -.00000312  00000+0 -83728-3 0  9999
2 51644  87.9192 160.6389 0001763  88.2365 271.8968 13.17648762111278
ONEWEB-0456             
1 51646U 22012AA  24121.56585304  .00000608  00000+0  17065-2 0  9999
2 51646  87.8977 190.8039 0002331 107.6007 252.5376 13.10373492107506
ONEWEB-0457             
1 51647U 22012AB  24121.61894883 -.00000568  00000+0 -16634-2 0  9999
2 51647  87.8990 190.8115 0002018  88.9500 271.1859 13.10376826107516
ONEWEB-0458             
1 51648U 22012AC  24121.56419155  .00000593  00000+0  16623-2 0  9993
2 51648  87.8988 190.8373 0001864 101.7557 258.3779 13.10373500107462
